      2.10          N: GNSS NAV DATA                        RINEX VERSION / TYPE
fic2rin                                 09/16/2024 00:59:01 PGM / RUN BY / DATE
                                                            END OF HEADER
2  24  9 15  2  0  0.0 -.357882119715D-03  .795807864051D-11  .000000000000D+00
     .320000000000D+02  .115375000000D+03  .416660212713D-08  .289046859253D+00
     .596605241299D-05  .161262291949D-01  .958517193794D-05  .515369316292D+04
     .720000000000D+04 -.521540641785D-07 -.656507382739D-01 -.277534127235D-06
     .967324214125D+00  .205937500000D+03 -.113252983535D+01 -.820927052050D-08
    -.146434671020D-10  .100000000000D+01  .233200000000D+04  .000000000000D+00
     .240000000000D+01  .000000000000D+00 -.176951289177D-07  .320000000000D+02
     .000000000000D+00  .400000000000D+01
1  24  9 15  2  0  0.0  .197586137801D-03 -.954969436862D-11  .000000000000D+00
     .400000000000D+02  .105312500000D+02  .661848997239D-08  .158113068001D+01
     .461935997009D-06  .134506280301D-01  .554509460926D-05  .515360634613D+04
     .720000000000D+04 -.350177288055D-06 -.206011823350D+01 -.856816768646D-07
     .953514412285D+00  .271843750000D+03  .103537711362D+01 -.843499420851D-08
    -.471448209139D-10  .100000000000D+01  .233200000000D+04  .000000000000D+00
     .340000000000D+01  .630000000000D+02 -.195577740669D-07  .400000000000D+02
     .000000000000D+00  .400000000000D+01
5  24  9 15  2  0  0.0 -.186616089195D-03 -.125055521494D-11  .000000000000D+00
     .420000000000D+02 -.781250000000D+00  .437411077070D-08  .441284051103D+00
     .633299350739D-07  .588723248802D-02  .162608921528D-05  .515367094040D+04
     .720000000000D+04 -.109896063805D-06  .101795362764D+01 -.596046447754D-07
     .972691176332D+00  .356312500000D+03  .132905918200D+01 -.838356349478D-08
     .596453416107D-10  .100000000000D+01  .233200000000D+04  .000000000000D+00
     .240000000000D+01  .000000000000D+00 -.107102096081D-07  .420000000000D+02
     .000000000000D+00  .400000000000D+01
4  24  9 15  2  0  0.0  .443824566901D-03  .716227077646D-11  .000000000000D+00
     .490000000000D+02 -.139781250000D+03  .415267297550D-08 -.191490938286D+00
    -.712461769581D-05  .302267260849D-02  .906735658646D-05  .515371498871D+04
     .720000000000D+04  .633299350739D-07  .214876931067D+01  .353902578354D-07
     .965723607659D+00  .206000000000D+03 -.300160058053D+01 -.799319009131D-08
    -.542879755978D-10  .100000000000D+01  .233200000000D+04  .000000000000D+00
     .240000000000D+01  .000000000000D+00 -.465661287308D-08  .305000000000D+03
     .000000000000D+00  .400000000000D+01
24 24  9 16  0  0  0.0 -.486654229462D-03  .341060513165D-12  .000000000000D+00
     .400000000000D+02 -.756250000000D+01  .486020244694D-08 -.276922542972D+01
    -.694766640663D-06  .158975091763D-01  .132583081722D-04  .515370816040D+04
     .864000000000D+05  .152736902237D-06  .306108866668D+01 -.180676579475D-06
     .934590010385D+00  .105375000000D+03  .100759890183D+01 -.789211445253D-08
     .578952687132D-09  .100000000000D+01  .233200000000D+04  .000000000000D+00
     .240000000000D+01  .000000000000D+00  .232830643654D-08  .400000000000D+02
     .792000000000D+05  .400000000000D+01
32 24  9 16  0  0  0.0 -.596782192588D-03  .363797880709D-11  .000000000000D+00
     .290000000000D+02 -.142968750000D+03  .454554648311D-08 -.182269656537D+00
    -.742264091969D-05  .786399398930D-02  .805966556072D-05  .515373151588D+04
     .864000000000D+05 -.111758708954D-07  .210280432661D+01  .134110450745D-06
     .962706203069D+00  .228843750000D+03 -.213623246554D+01 -.832570394184D-08
    -.267868300647D-09  .100000000000D+01  .233200000000D+04  .000000000000D+00
     .240000000000D+01  .000000000000D+00  .931322574615D-09  .290000000000D+02
     .792000000000D+05  .400000000000D+01
17 24  9 16  0  0  0.0  .625655520707D-03 -.113686837722D-10  .000000000000D+00
     .380000000000D+02 -.291562500000D+02  .448804408791D-08 -.977237530734D+00
    -.150501728058D-05  .135371099459D-01  .102538615465D-04  .515379546547D+04
     .864000000000D+05 -.229105353355D-06 -.968261896337D+00  .484287738800D-07
     .967103824053D+00  .189343750000D+03 -.130449651827D+01 -.819784147300D-08
    -.643955394756D-09  .100000000000D+01  .233200000000D+04  .000000000000D+00
     .240000000000D+01  .000000000000D+00 -.111758708954D-07  .380000000000D+02
     .792000000000D+05  .400000000000D+01
10 24  9 16  0  0  0.0 -.126549974084D-03 -.123918653117D-10  .000000000000D+00
     .890000000000D+02  .326875000000D+02  .433196615806D-08  .108526377291D+01
     .170432031155D-05  .965279154480D-02  .138580799103D-05  .515368200684D+04
     .864000000000D+05 -.169500708580D-06  .106754334235D+01  .353902578354D-07
     .985398954667D+00  .366437500000D+03 -.237968318626D+01 -.847356724380D-08
     .108933108930D-09  .100000000000D+01  .233200000000D+04  .000000000000D+00
     .240000000000D+01  .000000000000D+00  .232830643654D-08  .890000000000D+02
     .792000000000D+05  .400000000000D+01
22 24  9 16  0  0  0.0 -.622179359198D-04 -.375166564481D-11  .000000000000D+00
     .860000000000D+02  .109062500000D+02  .529700635586D-08 -.399180663134D+00
     .612810254097D-06  .140996421687D-01  .456906855106D-05  .515368076897D+04
     .864000000000D+05 -.763684511185D-07 -.198630458789D+01 -.949949026108D-07
     .960174441931D+00  .293375000000D+03 -.111517037105D+01 -.874786438366D-08
     .102504269714D-09  .100000000000D+01  .233200000000D+04  .000000000000D+00
     .240000000000D+01  .000000000000D+00 -.111758708954D-07  .860000000000D+02
     .792000000000D+05  .400000000000D+01
16 24  9 16  0  0  0.0 -.179995317012D-03  .102318153949D-10  .000000000000D+00
     .890000000000D+02  .169062500000D+02  .528379151970D-08  .760208598311D-01
     .108405947685D-05  .139478601050D-01  .434555113316D-05  .515360758018D+04
     .864000000000D+05 -.335276126862D-07 -.198959948756D+01  .150874257088D-06
     .960838216140D+00  .293218750000D+03  .844373710343D+00 -.867214694402D-08
    -.385730352932D-10  .100000000000D+01  .233200000000D+04  .000000000000D+00
     .240000000000D+01  .000000000000D+00 -.102445483208D-07  .890000000000D+02
     .792000000000D+05  .400000000000D+01
13 24  9 16  0  0  0.0  .676683150232D-03  .204636307899D-11  .000000000000D+00
     .450000000000D+02 -.116250000000D+03  .424089093584D-08 -.119462687058D+01
    -.590085983276D-05  .861476163846D-02  .932440161705D-05  .515369774818D+04
     .864000000000D+05  .154599547386D-06  .225535584396D+01  .145286321640D-06
     .972186165307D+00  .203031250000D+03  .961087207723D+00 -.796461747257D-08
    -.181436128972D-09  .100000000000D+01  .233200000000D+04  .000000000000D+00
     .240000000000D+01  .000000000000D+00 -.116415321827D-07  .450000000000D+02
     .792000000000D+05  .400000000000D+01
9  24  9 16  0  0  0.0  .358164776117D-03  .160298441187D-10  .000000000000D+00
     .790000000000D+02 -.129156250000D+03  .456947605130D-08 -.386353658438D+00
    -.701658427715D-05  .310816324782D-02  .688433647156D-05  .515359860611D+04
     .864000000000D+05 -.745058059692D-07  .208774464706D+01 -.409781932831D-07
     .959341513430D+00  .247593750000D+03  .198471985555D+01 -.822748556494D-08
    -.211080220910D-09  .100000000000D+01  .233200000000D+04  .000000000000D+00
     .240000000000D+01  .000000000000D+00  .465661287308D-09  .790000000000D+02
     .792000000000D+05  .400000000000D+01
11 24  9 16  0  0  0.0 -.734982080758D-03 -.420641299570D-11  .000000000000D+00
     .222000000000D+03  .106375000000D+03  .400516683127D-08 -.168521377571D+01
     .560283660889D-05  .169286865275D-02  .102613121271D-04  .515377416992D+04
     .864000000000D+05 -.372529029846D-08  .649964569405D-01 -.117346644402D-06
     .966503982290D+00  .189093750000D+03 -.254018700633D+01 -.780282501898D-08
     .130005415247D-09  .100000000000D+01  .233200000000D+04  .000000000000D+00
     .240000000000D+01  .000000000000D+00 -.884756445885D-08  .734000000000D+03
     .792000000000D+05  .400000000000D+01
14 24  9 16  0  0  0.0  .496443361044D-03  .852651282912D-11  .000000000000D+00
     .126000000000D+03  .238437500000D+02  .559809032579D-08  .173040668136D+01
     .133365392685D-05  .487117515877D-02  .433623790741D-05  .515368905830D+04
     .864000000000D+05  .130385160446D-07 -.205356878875D+01  .195577740669D-06
     .944789868759D+00  .289000000000D+03 -.285663954968D+01 -.870750555970D-08
     .100361323309D-09  .100000000000D+01  .233200000000D+04  .000000000000D+00
     .240000000000D+01  .000000000000D+00 -.791624188423D-08  .894000000000D+03
     .792000000000D+05  .400000000000D+01
30 24  9 16  0  0  0.0 -.320577528328D-03  .716227077646D-11  .000000000000D+00
     .510000000000D+02  .237500000000D+01  .497592155282D-08  .243423061623D+01
     .201165676117D-06  .717771821655D-02  .120420008898D-04  .515358954620D+04
     .864000000000D+05 -.875443220139D-07 -.312422937985D+01 -.203028321266D-06
     .936003626662D+00  .136437500000D+03 -.244765415357D+01 -.805176395972D-08
     .554665961207D-09  .100000000000D+01  .233200000000D+04  .000000000000D+00
     .240000000000D+01  .000000000000D+00  .372529029846D-08  .510000000000D+02
     .792000000000D+05  .400000000000D+01
26 24  9 16  0  0  0.0  .780299305916D-04 -.852651282912D-11  .000000000000D+00
     .390000000000D+02  .370937500000D+02  .595881963733D-08  .974723962445D+00
     .223517417908D-05  .919758342206D-02  .469945371151D-05  .515368862534D+04
     .864000000000D+05  .186264514923D-07 -.215981578315D+01  .968575477600D-07
     .930330856060D+00  .270968750000D+03  .554093429747D+00 -.891608567647D-08
     .115361948145D-09  .100000000000D+01  .233200000000D+04  .000000000000D+00
     .240000000000D+01  .000000000000D+00  .651925802231D-08  .390000000000D+02
     .792000000000D+05  .400000000000D+01
